[{"OBJECT_NAME":"COSMOS 2251 DEB","OBJECT_ID":"1993-036AUR","EPOCH":"2026-03-01T11:39:17.156736","MEAN_MOTION":14.27401531,"ECCENTRICITY":0.01027835,"INCLINATION":73.9812,"RA_OF_ASC_NODE":91.5985,"ARG_OF_PERICENTER":191.4251,"MEAN_ANOMALY":168.4565,"EPHEMERIS_TYPE":0,"CLASSIFICATION_TYPE":"U","NORAD_CAT_ID":35902,"ELEMENT_SET_NO":999,"REV_AT_EPOCH":62253,"BSTAR":0.00087332247,"MEAN_MOTION_DOT":2.24e-5,"MEAN_MOTION_DDOT":0},{"OBJECT_NAME":"COSMOS 2251 DEB","OBJECT_ID":"1993-036AUU","EPOCH":"2026-03-05T06:52:33.034944","MEAN_MOTION":15.00530799,"ECCENTRICITY":0.0084949,"INCLINATION":74.0317,"RA_OF_ASC_NODE":43.0245,"ARG_OF_PERICENTER":102.0037,"MEAN_ANOMALY":259.0688,"EPHEMERIS_TYPE":0,"CLASSIFICATION_TYPE":"U","NORAD_CAT_ID":35905,"ELEMENT_SET_NO":999,"REV_AT_EPOCH":89820,"BSTAR":0.00077707,"MEAN_MOTION_DOT":0.00010555,"MEAN_MOTION_DDOT":0},{"OBJECT_NAME":"COSMOS 2251 DEB","OBJECT_ID":"1993-036AUZ","EPOCH":"2026-03-05T06:28:17.431680","MEAN_MOTION":14.34202074,"ECCENTRICITY":0.0023183,"INCLINATION":74.0332,"RA_OF_ASC_NODE":160.976,"ARG_OF_PERICENTER":226.7728,"MEAN_ANOMALY":133.1489,"EPHEMERIS_TYPE":0,"CLASSIFICATION_TYPE":"U","NORAD_CAT_ID":35959,"ELEMENT_SET_NO":999,"REV_AT_EPOCH":86111,"BSTAR":0.00015413,"MEAN_MOTION_DOT":4.07e-6,"MEAN_MOTION_DDOT":0},{"OBJECT_NAME":"COSMOS 2251 DEB","OBJECT_ID":"1993-036AVB","EPOCH":"2026-03-01T16:32:46.210272","MEAN_MOTION":14.05894038,"ECCENTRICITY":0.01905052,"INCLINATION":73.9258,"RA_OF_ASC_NODE":65.263,"ARG_OF_PERICENTER":340.3294,"MEAN_ANOMALY":19.0559,"EPHEMERIS_TYPE":0,"CLASSIFICATION_TYPE":"U","NORAD_CAT_ID":35961,"ELEMENT_SET_NO":999,"REV_AT_EPOCH":63791,"BSTAR":0.0021300088,"MEAN_MOTION_DOT":4.081e-5,"MEAN_MOTION_DDOT":0},{"OBJECT_NAME":"COSMOS 2251 DEB","OBJECT_ID":"1993-036AVV","EPOCH":"2026-03-01T01:11:56.999328","MEAN_MOTION":14.75697117,"ECCENTRICITY":0.00593262,"INCLINATION":74.0083,"RA_OF_ASC_NODE":85.0523,"ARG_OF_PERICENTER":201.7003,"MEAN_ANOMALY":189.0511,"EPHEMERIS_TYPE":0,"CLASSIFICATION_TYPE":"U","NORAD_CAT_ID":35979,"ELEMENT_SET_NO":999,"REV_AT_EPOCH":89788,"BSTAR":0.00067098649,"MEAN_MOTION_DOT":4.689e-5,"MEAN_MOTION_DDOT":0},{"OBJECT_NAME":"COSMOS 2251 DEB","OBJECT_ID":"1993-036AVW","EPOCH":"2026-03-05T00:50:44.824128","MEAN_MOTION":14.60536492,"ECCENTRICITY":0.00511175,"INCLINATION":73.9135,"RA_OF_ASC_NODE":324.4577,"ARG_OF_PERICENTER":81.2804,"MEAN_ANOMALY":279.4146,"EPHEMERIS_TYPE":0,"CLASSIFICATION_TYPE":"U","NORAD_CAT_ID":35980,"ELEMENT_SET_NO":999,"REV_AT_EPOCH":62687,"BSTAR":0.0014993665,"MEAN_MOTION_DOT":7.392e-5,"MEAN_MOTION_DDOT":0},{"OBJECT_NAME":"COSMOS 2251 DEB","OBJECT_ID":"1993-036AVY","EPOCH":"2026-03-05T18:19:34.021344","MEAN_MOTION":14.63361567,"ECCENTRICITY":0.0065749,"INCLINATION":74.0585,"RA_OF_ASC_NODE":187.9192,"ARG_OF_PERICENTER":234.9565,"MEAN_ANOMALY":124.5424,"EPHEMERIS_TYPE":0,"CLASSIFICATION_TYPE":"U","NORAD_CAT_ID":35982,"ELEMENT_SET_NO":999,"REV_AT_EPOCH":87380,"BSTAR":0.0009237,"MEAN_MOTION_DOT":4.896e-5,"MEAN_MOTION_DDOT":0},{"OBJECT_NAME":"COSMOS 2251 DEB","OBJECT_ID":"1993-036AWD","EPOCH":"2026-03-03T23:35:17.522880","MEAN_MOTION":14.43715585,"ECCENTRICITY":0.00502796,"INCLINATION":74.0006,"RA_OF_ASC_NODE":175.3449,"ARG_OF_PERICENTER":282.1019,"MEAN_ANOMALY":77.4507,"EPHEMERIS_TYPE":0,"CLASSIFICATION_TYPE":"U","NORAD_CAT_ID":35987,"ELEMENT_SET_NO":999,"REV_AT_EPOCH":62237,"BSTAR":0.0013198955,"MEAN_MOTION_DOT":4.53e-5,"MEAN_MOTION_DDOT":0},{"OBJECT_NAME":"COSMOS 2251 DEB","OBJECT_ID":"1993-036AWF","EPOCH":"2026-03-02T12:26:52.305216","MEAN_MOTION":14.37210901,"ECCENTRICITY":0.00227968,"INCLINATION":74.0375,"RA_OF_ASC_NODE":137.1171,"ARG_OF_PERICENTER":206.1701,"MEAN_ANOMALY":153.8303,"EPHEMERIS_TYPE":0,"CLASSIFICATION_TYPE":"U","NORAD_CAT_ID":35989,"ELEMENT_SET_NO":999,"REV_AT_EPOCH":88325,"BSTAR":0.00020336343,"MEAN_MOTION_DOT":5.81e-6,"MEAN_MOTION_DDOT":0},{"OBJECT_NAME":"COSMOS 2251 DEB","OBJECT_ID":"1993-036AWK","EPOCH":"2026-02-23T01:17:53.375136","MEAN_MOTION":14.659565,"ECCENTRICITY":0.00301741,"INCLINATION":74.0143,"RA_OF_ASC_NODE":193.375,"ARG_OF_PERICENTER":358.7265,"MEAN_ANOMALY":1.3821,"EPHEMERIS_TYPE":0,"CLASSIFICATION_TYPE":"U","NORAD_CAT_ID":35993,"ELEMENT_SET_NO":999,"REV_AT_EPOCH":61502,"BSTAR":0.0008188738,"MEAN_MOTION_DOT":4.484e-5,"MEAN_MOTION_DDOT":0},{"OBJECT_NAME":"COSMOS 2251 DEB","OBJECT_ID":"1993-036AWN","EPOCH":"2026-03-04T23:09:47.731392","MEAN_MOTION":15.11153812,"ECCENTRICITY":0.0084237,"INCLINATION":74.0112,"RA_OF_ASC_NODE":293.413,"ARG_OF_PERICENTER":0.8697,"MEAN_ANOMALY":359.2625,"EPHEMERIS_TYPE":0,"CLASSIFICATION_TYPE":"U","NORAD_CAT_ID":35996,"ELEMENT_SET_NO":999,"REV_AT_EPOCH":73567,"BSTAR":0.00062627639,"MEAN_MOTION_DOT":0.00011414,"MEAN_MOTION_DDOT":0},{"OBJECT_NAME":"COSMOS 2251 DEB","OBJECT_ID":"1993-036AWP","EPOCH":"2026-03-02T06:24:18.889056","MEAN_MOTION":14.51838515,"ECCENTRICITY":0.00130283,"INCLINATION":74.0416,"RA_OF_ASC_NODE":37.6316,"ARG_OF_PERICENTER":97.2204,"MEAN_ANOMALY":263.0439,"EPHEMERIS_TYPE":0,"CLASSIFICATION_TYPE":"U","NORAD_CAT_ID":35997,"ELEMENT_SET_NO":999,"REV_AT_EPOCH":72038,"BSTAR":0.00087510237,"MEAN_MOTION_DOT":3.501e-5,"MEAN_MOTION_DDOT":0},{"OBJECT_NAME":"COSMOS 2251 DEB","OBJECT_ID":"1993-036AWS","EPOCH":"2026-02-28T07:31:38.439840","MEAN_MOTION":14.94728509,"ECCENTRICITY":0.00272918,"INCLINATION":73.9908,"RA_OF_ASC_NODE":290.6282,"ARG_OF_PERICENTER":25.1174,"MEAN_ANOMALY":335.133,"EPHEMERIS_TYPE":0,"CLASSIFICATION_TYPE":"U","NORAD_CAT_ID":36000,"ELEMENT_SET_NO":999,"REV_AT_EPOCH":61327,"BSTAR":0.0022038776,"MEAN_MOTION_DOT":0.00024159,"MEAN_MOTION_DDOT":0},{"OBJECT_NAME":"COSMOS 2251 DEB","OBJECT_ID":"1993-036AWX","EPOCH":"2026-03-05T07:45:39.852288","MEAN_MOTION":14.47484599,"ECCENTRICITY":0.0060016,"INCLINATION":74.0263,"RA_OF_ASC_NODE":299.4762,"ARG_OF_PERICENTER":55.2825,"MEAN_ANOMALY":305.3966,"EPHEMERIS_TYPE":0,"CLASSIFICATION_TYPE":"U","NORAD_CAT_ID":36005,"ELEMENT_SET_NO":999,"REV_AT_EPOCH":88779,"BSTAR":0.00019783,"MEAN_MOTION_DOT":7.15e-6,"MEAN_MOTION_DDOT":0},{"OBJECT_NAME":"COSMOS 2251 DEB","OBJECT_ID":"1993-036AXG","EPOCH":"2026-03-04T22:29:18.995424","MEAN_MOTION":14.72312817,"ECCENTRICITY":0.00470833,"INCLINATION":73.759,"RA_OF_ASC_NODE":256.7799,"ARG_OF_PERICENTER":257.1043,"MEAN_ANOMALY":102.4866,"EPHEMERIS_TYPE":0,"CLASSIFICATION_TYPE":"U","NORAD_CAT_ID":36045,"ELEMENT_SET_NO":999,"REV_AT_EPOCH":9597,"BSTAR":0.0025377369,"MEAN_MOTION_DOT":0.00016333,"MEAN_MOTION_DDOT":0},{"OBJECT_NAME":"COSMOS 2251 DEB","OBJECT_ID":"1993-036AXH","EPOCH":"2026-02-23T23:42:49.311072","MEAN_MOTION":14.65767134,"ECCENTRICITY":0.00585152,"INCLINATION":74.0112,"RA_OF_ASC_NODE":135.3155,"ARG_OF_PERICENTER":264.2313,"MEAN_ANOMALY":276.4308,"EPHEMERIS_TYPE":0,"CLASSIFICATION_TYPE":"U","NORAD_CAT_ID":36046,"ELEMENT_SET_NO":999,"REV_AT_EPOCH":65076,"BSTAR":0.00043696795,"MEAN_MOTION_DOT":2.41e-5,"MEAN_MOTION_DDOT":0},{"OBJECT_NAME":"COSMOS 2251 DEB","OBJECT_ID":"1993-036AXJ","EPOCH":"2026-03-05T16:17:43.551456","MEAN_MOTION":15.0214836,"ECCENTRICITY":0.0005328,"INCLINATION":74.0337,"RA_OF_ASC_NODE":165.8364,"ARG_OF_PERICENTER":248.738,"MEAN_ANOMALY":111.324,"EPHEMERIS_TYPE":0,"CLASSIFICATION_TYPE":"U","NORAD_CAT_ID":36047,"ELEMENT_SET_NO":999,"REV_AT_EPOCH":67182,"BSTAR":0.0033319,"MEAN_MOTION_DOT":0.00044099,"MEAN_MOTION_DDOT":0},{"OBJECT_NAME":"COSMOS 2251 DEB","OBJECT_ID":"1993-036AXK","EPOCH":"2026-03-05T16:39:47.158848","MEAN_MOTION":14.38008786,"ECCENTRICITY":0.0026273,"INCLINATION":74.0568,"RA_OF_ASC_NODE":146.7151,"ARG_OF_PERICENTER":182.751,"MEAN_ANOMALY":335.0086,"EPHEMERIS_TYPE":0,"CLASSIFICATION_TYPE":"U","NORAD_CAT_ID":36048,"ELEMENT_SET_NO":999,"REV_AT_EPOCH":86694,"BSTAR":0.00031167,"MEAN_MOTION_DOT":9.21e-6,"MEAN_MOTION_DDOT":0},{"OBJECT_NAME":"COSMOS 2251 DEB","OBJECT_ID":"1993-036AXL","EPOCH":"2026-03-05T16:11:01.533984","MEAN_MOTION":14.63294831,"ECCENTRICITY":0.0008969,"INCLINATION":74.0321,"RA_OF_ASC_NODE":320.1818,"ARG_OF_PERICENTER":22.3609,"MEAN_ANOMALY":337.7947,"EPHEMERIS_TYPE":0,"CLASSIFICATION_TYPE":"U","NORAD_CAT_ID":36049,"ELEMENT_SET_NO":999,"REV_AT_EPOCH":86577,"BSTAR":0.0012119,"MEAN_MOTION_DOT":6.232e-5,"MEAN_MOTION_DDOT":0},{"OBJECT_NAME":"COSMOS 2251 DEB","OBJECT_ID":"1993-036AXM","EPOCH":"2026-03-05T13:33:21.344832","MEAN_MOTION":15.02698386,"ECCENTRICITY":0.0082461,"INCLINATION":74.0328,"RA_OF_ASC_NODE":25.1193,"ARG_OF_PERICENTER":82.9007,"MEAN_ANOMALY":278.1549,"EPHEMERIS_TYPE":0,"CLASSIFICATION_TYPE":"U","NORAD_CAT_ID":36050,"ELEMENT_SET_NO":999,"REV_AT_EPOCH":68278,"BSTAR":0.00087287,"MEAN_MOTION_DOT":0.0001253,"MEAN_MOTION_DDOT":0},{"OBJECT_NAME":"COSMOS 2251 DEB","OBJECT_ID":"1993-036AXQ","EPOCH":"2026-03-05T04:49:46.906176","MEAN_MOTION":14.58580523,"ECCENTRICITY":0.0033398,"INCLINATION":73.8743,"RA_OF_ASC_NODE":354.2884,"ARG_OF_PERICENTER":282.9157,"MEAN_ANOMALY":76.8277,"EPHEMERIS_TYPE":0,"CLASSIFICATION_TYPE":"U","NORAD_CAT_ID":36053,"ELEMENT_SET_NO":999,"REV_AT_EPOCH":88646,"BSTAR":0.0020479,"MEAN_MOTION_DOT":9.585e-5,"MEAN_MOTION_DDOT":0},{"OBJECT_NAME":"COSMOS 2251 DEB","OBJECT_ID":"1993-036AXV","EPOCH":"2026-03-03T19:30:04.038336","MEAN_MOTION":14.59188824,"ECCENTRICITY":0.00450565,"INCLINATION":74.0198,"RA_OF_ASC_NODE":238.8756,"ARG_OF_PERICENTER":350.8075,"MEAN_ANOMALY":9.226,"EPHEMERIS_TYPE":0,"CLASSIFICATION_TYPE":"U","NORAD_CAT_ID":36058,"ELEMENT_SET_NO":999,"REV_AT_EPOCH":67293,"BSTAR":0.00061758824,"MEAN_MOTION_DOT":2.923e-5,"MEAN_MOTION_DDOT":0},{"OBJECT_NAME":"COSMOS 2251 DEB","OBJECT_ID":"1993-036AXX","EPOCH":"2026-03-03T09:21:44.727264","MEAN_MOTION":14.42212841,"ECCENTRICITY":0.00146997,"INCLINATION":74.0272,"RA_OF_ASC_NODE":84.9788,"ARG_OF_PERICENTER":174.6913,"MEAN_ANOMALY":185.4402,"EPHEMERIS_TYPE":0,"CLASSIFICATION_TYPE":"U","NORAD_CAT_ID":36060,"ELEMENT_SET_NO":999,"REV_AT_EPOCH":86172,"BSTAR":0.000356248,"MEAN_MOTION_DOT":1.149e-5,"MEAN_MOTION_DDOT":0}]
